{
    "sites": [{
        "id": 1,
        "name": "上海",
        "abbr": "SH",
        "area_code": "021",
        "sort": 1,
        "latitude": 31.23037,
        "longitude": 121.473701,
        "is_map": true,
        "pinyin": "shanghai"
    }, {
        "id": 10,
        "name": "哈尔滨",
        "abbr": "HEB",
        "area_code": "0451",
        "sort": 4,
        "latitude": 45.802158,
        "longitude": 126.535797,
        "is_map": true,
        "pinyin": "haerbin"
    }, {
        "id": 6,
        "name": "南京",
        "abbr": "NJ",
        "area_code": "025",
        "sort": 5,
        "latitude": 31.84178,
        "longitude": 118.504669,
        "is_map": true,
        "pinyin": "nanjing"
    }, {
        "id": 4,
        "name": "广州",
        "abbr": "GZ",
        "area_code": "020",
        "sort": 6,
        "latitude": 23.12908,
        "longitude": 113.264359,
        "is_map": true,
        "pinyin": "guangzhou"
    }, {
        "id": 13,
        "name": "厦门",
        "abbr": "XM",
        "area_code": "0592",
        "sort": 7,
        "latitude": 24.479509,
        "longitude": 118.089478,
        "is_map": true,
        "pinyin": "xiamen"
    }, {
        "id": 2,
        "name": "杭州",
        "abbr": "HZ",
        "area_code": "0571",
        "sort": 8,
        "latitude": 30.274151,
        "longitude": 120.155151,
        "is_map": true,
        "pinyin": "hangzhou"
    }, {
        "id": 5,
        "name": "天津",
        "abbr": "TJ",
        "area_code": "022",
        "sort": 14,
        "latitude": 39.085098,
        "longitude": 117.199371,
        "is_map": true,
        "pinyin": "tianjin"
    }, {
        "id": 28,
        "name": "青岛",
        "abbr": "QD",
        "area_code": "0532",
        "sort": 15,
        "latitude": 36.066231,
        "longitude": 120.382988,
        "is_map": true,
        "pinyin": "qingdao"
    }]
}